{
    "links": {
        "self": "http://www.neowsapp.com/rest/v1/neo/54016312?api_key=iIulBulltgU6a56xZRHN4H3l9WmuAYTsLGpBGhQ2"
    },
    "id": "54016312",
    "neo_reference_id": "54016312",
    "name": "(2020 FB3)",
    "designation": "2020 FB3",
    "nasa_jpl_url": "http://ssd.jpl.nasa.gov/sbdb.cgi?sstr=54016312",
    "absolute_magnitude_h": 25.062,
    "estimated_diameter": {
        "kilometers": {
            "estimated_diameter_min": 0.0258318183,
            "estimated_diameter_max": 0.0577617016
        },
        "meters": {
            "estimated_diameter_min": 25.8318182641,
            "estimated_diameter_max": 57.7617016211
        },
        "miles": {
            "estimated_diameter_min": 0.0160511427,
            "estimated_diameter_max": 0.0358914463
        },
        "feet": {
            "estimated_diameter_min": 84.7500626338,
            "estimated_diameter_max": 189.5069011464
        }
    },
    "is_potentially_hazardous_asteroid": false,
    "close_approach_data": [
        {
            "close_approach_date": "2020-04-06",
            "close_approach_date_full": "2020-Apr-06 10:24",
            "epoch_date_close_approach": 1586168640000,
            "relative_velocity": {
                "kilometers_per_second": "5.8450730331",
                "kilometers_per_hour": "21042.2629190954",
                "miles_per_hour": "13074.8438677013"
            },
            "miss_distance": {
                "astronomical": "0.0659384066",
                "lunar": "25.6500401674",
                "kilometers": "9864245.178553942",
                "miles": "6129357.7318587196"
            },
            "orbiting_body": "Earth"
        }
    ],
    "orbital_data": {
        "orbit_id": "2",
        "orbit_determination_date": "2020-04-02 06:06:07",
        "first_observation_date": "2020-03-22",
        "last_observation_date": "2020-04-02",
        "data_arc_in_days": 11,
        "observations_used": 17,
        "orbit_uncertainty": "8",
        "minimum_orbit_intersection": ".0491052",
        "jupiter_tisserand_invariant": "4.928",
        "epoch_osculation": "2458931.5",
        "eccentricity": ".246243740909923",
        "semi_major_axis": "1.312474873924841",
        "inclination": "8.386272891847486",
        "ascending_node_longitude": "358.3645172686999",
        "orbital_period": "549.205558252278",
        "perihelion_distance": ".9892861511193085",
        "perihelion_argument": "232.242596121282",
        "aphelion_distance": "1.635663596730373",
        "perihelion_time": "2458979.072439824338",
        "mean_anomaly": "328.8166332633968",
        "mean_motion": ".655492273504329",
        "equinox": "J2000",
        "orbit_class": {
            "orbit_class_type": "APO",
            "orbit_class_description": "Near-Earth asteroid orbits which cross the Earth’s orbit similar to that of 1862 Apollo",
            "orbit_class_range": "a (semi-major axis) > 1.0 AU; q (perihelion) < 1.017 AU"
        }
    },
    "is_sentry_object": false
}